{"title":"Le Coquillage","address":"Lieu-dit Le Buot","postCode":"35350"}
{"title":"Stéphane Derbord","address":"10 Place du Président Wilson","postCode":"21000"}
{"title":"Le Bouche à Oreille","address":"11 r. de la Chapelle","postCode":"91150"}
{"title":"Ivan Vautier","address":"3 avenue Henry-Chéron","postCode":"14000"}
{"title":"L'Atelier de Joël Robuchon - St-Germain","address":"5 r. de Montalembert","postCode":"75007"}
{"title":"Meulien","address":"1 bis av. des Alpes","postCode":"71700"}
{"title":"Maison Rostang","address":"20 rue Rennequin","postCode":"75017"}
{"title":"Raphaël Vionnet","address":"43 Avenue du Général Leclerc","postCode":"74200"}
{"title":"Auberge des Templiers","address":"D2007","postCode":"45290"}
{"title":"Flaveur","address":"25 Rue Gubernatis","postCode":"06000"}
{"title":"Shang Palace","address":"10 Avenue d'Iéna","postCode":"75016"}
{"title":"Le Restaurant","address":"13 rue des Beaux-Arts","postCode":"75006"}
{"title":"Yoann Conte","address":"13 Vieille-Route-des-Pensières","postCode":"74290"}
{"title":"Frédéric Simonin","address":"25 rue Bayen","postCode":"75017"}
{"title":"Les Terraillers","address":"11 Route Chemin-Neuf","postCode":"06410"}
{"title":"Jean-Luc Tartarin","address":"Square Saint-Roch","postCode":"76600"}
{"title":"La Table de Patrick Raingeard","address":"1312 av. Raymond-Poincaré","postCode":"06360"}
{"title":"Loiseau des Ducs","address":"3 Rue Vauban","postCode":"21000"}
{"title":"L'Atelier d'Edmond","address":"au Fornet","postCode":"73150"}
{"title":"L'Amphitryon","address":"127 r. du Col. -Müller","postCode":"56100"}
{"title":"Maison Clovis","address":"19 bd Brotteaux","postCode":"69006"}
{"title":"Le Lièvre Gourmand","address":"28 quai du Châtelet","postCode":"45000"}
{"title":"La Ribaudière","address":"2 pl. du Port","postCode":"16200"}
{"title":"Pertica","address":"15 pl. de la République","postCode":"41100"}
{"title":"Hostellerie de l'Abbaye de la Celle","address":"10 Place Général de Gaulle","postCode":"83170"}
{"title":"SEPT","address":"7 pl. St-Sernin","postCode":"31000"}
{"title":"Le Bistrot de Lagarde","address":"rte d'Apt","postCode":"84400"}
{"title":"Restaurant des Rois","address":"5 Boulevard du Maréchal Leclerc","postCode":"06310"}
{"title":"Jean-Claude Leclerc","address":"12 rue St-Adjutor","postCode":"63000"}
{"title":"La Pyramide-Patrick Henriroux","address":"14 Boulevard Fernand Point","postCode":"38200"}
{"title":"Michel Sarran","address":"21 bd A.-Duportal","postCode":"31000"}
{"title":"Au Déjeuner de Sousceyrac","address":"r. Pierre-Benoit","postCode":"46190"}
{"title":"La Grange de Belle-Église","address":"28 bd René-Aimé-Lagabrielle","postCode":"60540"}
{"title":"1741","address":"22 Quai des Bateliers","postCode":"67000"}
{"title":"Le Jules Verne","address":"2<E>ème</E> étage Tour Eiffel","postCode":"75007"}
{"title":"Gordon Ramsay au Trianon","address":"1 bd de la Reine","postCode":"78000"}
{"title":"La Table des Cordeliers","address":"1 r. des Cordeliers","postCode":"32100"}
{"title":"Les Bories","address":"rte de l'Abbaye de Sénanque","postCode":"84220"}
{"title":"La Gourmandière - La Table d'Olivier","address":"D126","postCode":"56000"}
{"title":"Chez Michèle","address":"57 rue Principale","postCode":"57810"}
{"title":"Étincelles - La Gentilhommière","address":"","postCode":"24440"}
{"title":"Au Souper Fin","address":"1 rte de Clères","postCode":"76690"}
{"title":"Toya","address":"av. Jean-Monnet","postCode":"57380"}
{"title":"L'Archeste","address":"79 rue de la Tour","postCode":"75116"}
{"title":"Les Rosiers","address":"32 av. Beau Soleil","postCode":"64200"}
{"title":"La Marelle","address":"1593 av. de Lyon","postCode":"01960"}
{"title":"La Table de Chaintré","address":"72 pl. du Luminaire","postCode":"71570"}
{"title":"Le Sénéchal","address":"Sauveterre de Rouergue","postCode":"12800"}
{"title":"Les Explorateurs","address":"place du Slalom","postCode":"73440"}
{"title":"La Coopérative","address":"2A Route de Caladroy","postCode":"66720"}
{"title":"Le Domaine du Colombier","address":"270 Chemin de Malombre","postCode":"26780"}
{"title":"Le Clarence","address":"31 Avenue Franklin Delano Roosevelt","postCode":"75008"}
{"title":"Le Gambetta","address":"12 r. Gambetta","postCode":"49400"}
{"title":"Relais de la Poste","address":"21 rue du Gén. -de-Gaulle","postCode":"67610"}
{"title":"La Renaissance","address":"20 av. 2e-Division-Blindée","postCode":"61200"}
{"title":"Les Voiles d'Or","address":"2 chemin de la Falaise","postCode":"76200"}
{"title":"Michel Trama","address":"52 r. Royale","postCode":"47270"}
{"title":"La Closerie","address":"bd des Platanes","postCode":"84240"}
{"title":"Le 39V","address":"39 Avenue George V","postCode":"75008"}
{"title":"Ô Flaveurs","address":"Château de Chilly","postCode":"74140"}
{"title":"Le Cercle","address":"44 bd Lahitolle","postCode":"18000"}
{"title":"Cayola","address":"76 promenade de Cayola","postCode":"85180"}
{"title":"Le Chiquito","address":"3 r. de l'Oise, La Bonneville","postCode":"95540"}
{"title":"Le Refuge des Gourmets","address":"90 route des Framboises","postCode":"74140"}
{"title":"Loiseau rive Gauche","address":"5 rue Bourgogne","postCode":"75007"}
{"title":"L'Aubergade","address":"78 rte Nationale","postCode":"80480"}
{"title":"Le Puits du Trésor","address":"21 rte des Quatre-Châteaux","postCode":"11600"}
{"title":"Septime","address":"80 r. de Charonne","postCode":"75011"}
{"title":"U Santa Marina","address":"Marina di Santa Giulia","postCode":"20137"}
{"title":"Garopapilles","address":"62 r. Abbé-de-L'Epée","postCode":"33000"}
{"title":"La Table by La Villa","address":"chemin de Notre-Dame-de-la-Serra","postCode":"20260"}
{"title":"Auberge Tiegezh","address":"7 Place de la Gare","postCode":"56380"}
{"title":"Palégrié","address":"Les Ritons","postCode":"38250"}
{"title":"Le Marcq","address":"944 av. de la République","postCode":"59700"}
{"title":"Pèir","address":"r. de la Combe","postCode":"84220"}
{"title":"Clovis","address":"21 Grand-Rue","postCode":"06140"}
{"title":"Château de Vauchoux","address":"","postCode":"70170"}
{"title":"Étude","address":"14 r. Bouquet-de-Longchamp","postCode":"75016"}
{"title":"Le Clos St-Pierre","address":"pl. de la Mairie","postCode":"06650"}
{"title":"L'Hysope","address":"25 r. de l'Aurore","postCode":"17220"}
{"title":"L'Océan","address":"43 bd Thiers","postCode":"64500"}
{"title":"Transparence \"La Table de Patrick Fréchin\"","address":"28 r. Stanislas","postCode":"54000"}
{"title":"Mickaël Féval","address":"11 Petite-Rue-St-Jean","postCode":"13100"}
{"title":"Origine","address":"26 rampe Cauchoise","postCode":"76000"}
{"title":"Le Jardin de Benjamin","address":"Route de Salernes","postCode":"83510"}
{"title":"Le Kintessence","address":"Rue des Clarines","postCode":"73120"}
{"title":"Le Relais des Moines","address":"route de Ste-Roseline","postCode":"83460"}
{"title":"Allium","address":"88 bd de Créac'h-Gwen","postCode":"29000"}
{"title":"Le Pousse-Pied","address":"84 bd des Vendéens","postCode":"85360"}
{"title":"Le Jardin des Remparts","address":"10 rue Hôtel-Dieu","postCode":"21200"}
{"title":"Rodolphe","address":"35 r. Percière","postCode":"76000"}
{"title":"Le Pavillon","address":"av. du Verger","postCode":"62520"}
{"title":"Laurent","address":"41 av. Gabriel","postCode":"75008"}
{"title":"Benoit","address":"20 Rue St-Martin","postCode":"75004"}
{"title":"Auberge du Paradis","address":"Le Plâtre-Durand","postCode":"71570"}
{"title":"Les Pêcheurs","address":"10 boulevard du Maréchal-Juin","postCode":"06600"}
{"title":"Racine","address":"6 pl. Godinot","postCode":"51100"}
{"title":"Château de Codignat","address":"Bort l'Etang","postCode":"63190"}
{"title":"L'Ambroisie","address":"9 Place des Vosges","postCode":"75004"}
{"title":"Pont de l'Ouysse","address":"D23","postCode":"46200"}
{"title":"Restaurant du Palais Royal","address":"110 Galerie de Valois - Jardin du Palais Royal","postCode":"75001"}
{"title":"Garance","address":"34 r. St-Dominique","postCode":"75007"}
{"title":"Le Grand Cerf","address":"50 rte Nationale","postCode":"51500"}
{"title":"La Tour des Vents","address":"Le Moulin de Malfourat","postCode":"24240"}
{"title":"Le Grand Restaurant - Jean-François Piège","address":"7 r. d'Aguesseau","postCode":"75008"}
{"title":"La Bastide de Moustiers","address":"Parc naturel régional du Verdon, Chemin de Quinson","postCode":"04360"}
{"title":"Villa Archange","address":"Rue de l'Ouest","postCode":"06110"}
{"title":"Une Table au Sud","address":"2 quai du Port","postCode":"13002"}
{"title":"Le Clos des Sens","address":"13 r. J. -Mermoz","postCode":"74940"}
{"title":"La Bastide de Capelongue","address":"Chemin des Cabanes","postCode":"84480"}
{"title":"JAN","address":"12 Rue Lascaris","postCode":"06000"}
{"title":"Le Clocher des Pères","address":"D213","postCode":"73130"}
{"title":"Greuze","address":"1 r. A. Thibaudet","postCode":"71700"}
{"title":"Auberge La Pomme d'Api","address":"49 r. Verderel","postCode":"29250"}
{"title":"Hostellerie la Montagne","address":"10 rue Pisseloup","postCode":"52330"}
{"title":"Chapelle Saint-Martin","address":"33, Saint Martin du Fault","postCode":"87510"}
{"title":"L'O des Vignes","address":"r. du Bourg","postCode":"71960"}
{"title":"L'Atelier de Joël Robuchon - Étoile","address":"133 av. des Champs-Élysées","postCode":"75008"}
{"title":"Les Chênes Verts","address":"rte de Villecroze","postCode":"83690"}
{"title":"L'Orangerie du Château","address":"1 Avenue du Docteur Jean Laigret","postCode":"41000"}
{"title":"Avel Vor","address":"25 r. de Locmalo","postCode":"56290"}
{"title":"SaQuaNa","address":"22 pl. Hamelin","postCode":"14600"}
{"title":"L'Aquarelle","address":"71 A rte du Montil","postCode":"17920"}
{"title":"Maison Prévôt","address":"353 av. de Verdun","postCode":"84300"}
{"title":"La Petite Maison de Cucuron","address":"pl. de l'Étang","postCode":"84160"}
{"title":"La Tour","address":"31 Nouvelle-Place","postCode":"18300"}
{"title":"Le Carmin","address":"4B Place Carnot","postCode":"21200"}
{"title":"La Table des Blot - Auberge du Château","address":"1 Grande-Rue","postCode":"78720"}
{"title":"Auberge St-Walfrid","address":"58 r. de Grosbliederstroff","postCode":"57200"}
{"title":"Paul Bocuse","address":"40 Rue de la Plage","postCode":"69660"}
{"title":"Azimut","address":"273 r. de la Madelon","postCode":"73120"}
{"title":"Maximin Hellio","address":"64 Rue Gambetta","postCode":"14800"}
{"title":"L'Émulsion","address":"57 rte de Lyon","postCode":"38080"}
{"title":"Auberge de la Charme","address":"12 r. de la Charme","postCode":"21370"}
{"title":"Cyril Attrazic","address":"10 rte du Languedoc","postCode":"48130"}
{"title":"Au Vieux Couvent","address":"6 r. des Chanoines","postCode":"67860"}
{"title":"La Marine","address":"11 r. de Paris","postCode":"50270"}
{"title":"Pierre","address":"7-9 rue Joseph Dufour","postCode":"71000"}
{"title":"Maison Crouzil et Hôtel L'Écrin","address":"20 les Quais","postCode":"22130"}
{"title":"Le Pot d'Étain","address":"4 av. de la République","postCode":"90400"}
{"title":"Frédéric Doucet","address":"2 avenue de la Libération","postCode":"71120"}
{"title":"Maison Kieny","address":"7 Rue du Général de Gaulle","postCode":"68400"}
{"title":"La Table de l'Espadon","address":"15 Place Vendôme","postCode":"75001"}
{"title":"Aux Pesked","address":"59 Rue du Légué","postCode":"22000"}
{"title":"Auberge de l'Île Barbe","address":"1 Place Notre-Dame","postCode":"69009"}
{"title":"Agapé","address":"51 rue Jouffroy-d'Abbans","postCode":"75017"}
{"title":"La Nouvelle Auberge","address":"9 route Nationale","postCode":"68230"}
{"title":"Ze Kitchen Galerie","address":"4 r. des Grands-Augustins","postCode":"75006"}
{"title":"Entre Vigne et Garrigue","address":"600 route de Saint Bruno","postCode":"30131"}
{"title":"Terre-Mer","address":"16 r. du Jeu-de-Paume","postCode":"56400"}
{"title":"Les Tablettes de Jean-Louis Nomicos","address":"16 avenue Bugeaud","postCode":"75116"}
{"title":"La Gouesnière","address":"1 Le Limonay","postCode":"35350"}
{"title":"Le Pré Catelan","address":"Route de Suresnes","postCode":"75016"}
{"title":"Le Chantecler","address":"37 Promenade des Anglais","postCode":"06000"}
{"title":"JY'S","address":"17 r. de la Poissonnerie","postCode":"68000"}
{"title":"Alexandre","address":"2 rue Xavier Tronc","postCode":"30128"}
{"title":"La Table de Franck Putelat","address":"80 chemin des Anglais","postCode":"11000"}
{"title":"Le Jasmin","address":"Lieu-dit Lalande","postCode":"47140"}
{"title":"Christophe Bacquié","address":"Hotel du Castellet Route des Hauts du Camp","postCode":"83330"}
{"title":"Les Hautes Roches","address":"86 quai de Loire","postCode":"37210"}
{"title":"Akrame","address":"7 r. Tronchet","postCode":"75008"}
{"title":"Comice","address":"31 av. de Versailles","postCode":"75016"}
{"title":"Le Skiff Club","address":"1 av. Louis-Gaume","postCode":"33260"}
{"title":"Jean Chauvel","address":"33 av. Général-Leclerc","postCode":"92100"}
{"title":"Le Grand Cap","address":"chemin du Phare","postCode":"11370"}
{"title":"Restaurant H","address":"13 r. Jean-Beausire","postCode":"75004"}
{"title":"Divellec","address":"18 r. Fabert","postCode":"75007"}
{"title":"Ken Kawasaki","address":"15 r. Caulaincourt","postCode":"75018"}
{"title":"Pages","address":"4 r. Auguste-Vacquerie","postCode":"75016"}
{"title":"Quinsou","address":"33 r. de l'Abbé-Grégoire","postCode":"75006"}
{"title":"Sushi B","address":"5 r. Rameau","postCode":"75002"}
{"title":"La Table de la Ferme","address":"Vallée de l'Ortolo","postCode":"20100"}
{"title":"La Merise","address":"7 r. d'Eschbach","postCode":"67580"}
{"title":"Le Chateaubriand","address":"129 av. Parmentier","postCode":"75011"}
{"title":"La Vieille Tour","address":"75 r. de la Tour","postCode":"22190"}
{"title":"Les Genêts","address":"21 bis Rue de l'Océan","postCode":"85470"}
{"title":"Ima","address":"20 bd de la Tour-d'Auvergne","postCode":"35000"}
{"title":"Pertinence","address":"29 r. de l'Exposition","postCode":"75007"}
{"title":"Jean Sulpice","address":"303 rte du Port","postCode":"74290"}
{"title":"L'Auberge de Bagatelle","address":"489 av. Bollée","postCode":"72000"}
{"title":"Le St-Martin","address":"1 r. du Gén.-Leclerc","postCode":"25200"}
{"title":"L'Aromate","address":"2 r. Gustave Deloye","postCode":"06000"}
{"title":"La Roya","address":"plage de la Roya","postCode":"20217"}
{"title":"Lou Cigalon-Maison Martin","address":"6 bd Carnot","postCode":"06560"}
{"title":"Pierre Reboul","address":"260 r. Guillaume-du-Vair","postCode":"13546"}
{"title":"La Table d'Hôtes - Le Quatrième Mur","address":"2 pl. de la Comédie","postCode":"33000"}
{"title":"La Fourchette du Printemps","address":"30 r. du Printemps","postCode":"75017"}
{"title":"Jérôme Feck","address":"19 pl. Mgr-Tissier","postCode":"51000"}
{"title":"Montée","address":"9 r. Léopold-Robert","postCode":"75014"}
{"title":"Baumanière 1850","address":"rte de Bellecôte","postCode":"73120"}
{"title":"Jérôme Brochot","address":"Place Beaubernard","postCode":"71300"}
{"title":"Girardin","address":"19 Rue des Têtes","postCode":"68000"}
{"title":"Le St-Placide","address":"6 place du poncel","postCode":"35400"}
{"title":"Le Pré du Moulin","address":"rte de Ste-Cécile-les-Vignes","postCode":"84830"}
{"title":"Alain Llorca","address":"350 Route de St-Paul","postCode":"06480"}
{"title":"Le Pressoir","address":"7 r. de l'Hôpital","postCode":"56890"}
{"title":"L'Odas","address":"4 Passage Maurice Lenfant","postCode":"76000"}
{"title":"La Maison de Bournissac","address":"montée d'Eyragues","postCode":"13550"}
{"title":"Pic","address":"285 avenue Victor Hugo","postCode":"26000"}
{"title":"Auberge du Vieux Puits","address":"5 Avenue Saint-Victor","postCode":"11360"}
{"title":"Michel Chabran - La Grande Table","address":"29 Avenue du Quarante-Cinquième Parallèle","postCode":"26600"}
{"title":"La Villa Madie","address":"av. du Revestel","postCode":"13260"}
{"title":"La Table des Merville","address":"3 place Richard","postCode":"31320"}
{"title":"L'Aparté","address":"21 Rue de l’Europe","postCode":"31850"}
{"title":"1912","address":"bd de la Cahotte","postCode":"14360"}
{"title":"Le Meurice Alain Ducasse","address":"228 Rue de Rivoli","postCode":"75001"}
{"title":"Château de Sully","address":"D6","postCode":"14400"}
{"title":"La Dame de Pic","address":"20 Rue du Louvre","postCode":"75001"}
{"title":"Lasserre","address":"17 Avenue F. -D. -Roosevelt","postCode":"75008"}
{"title":"Helen","address":"3 r.Berryer","postCode":"75008"}
{"title":"Domaine de Rochevilaine","address":"à la Pointe de Pen Lan","postCode":"56190"}
{"title":"Domaine des Séquoias","address":"54 Vie-de-Boussieu","postCode":"38300"}
{"title":"La Passagère","address":"33 boulevard E. -Baudoin","postCode":"06160"}
{"title":"L'Auberge des Glazicks","address":"7 rue de la Plage","postCode":"29550"}
{"title":"La Bonne Étape","address":"chemin du lac","postCode":"04160"}
{"title":"L'Oustau de Baumanière","address":"Village des Baux-de-Provence","postCode":"13520"}
{"title":"Le Parc Les Crayères","address":"64 Boulevard Henry Vasnier","postCode":"51100"}
{"title":"Le Vivarais","address":"5 avenue Expilly","postCode":"07600"}
{"title":"La Grand'Vigne","address":"chemin de Smith-Haut-Lafitte","postCode":"33650"}
{"title":"Auberge du Cheval Blanc","address":"4 Route de Wissembourg","postCode":"67510"}
{"title":"Roscanvec","address":"17 r. des Halles","postCode":"56000"}
{"title":"La Promenade","address":"2 promenade Jean-Jaurès","postCode":"31590"}
{"title":"La Palme d'Or","address":"73 Boulevard de la Croisette","postCode":"06400"}
{"title":"En Pleine Nature","address":"6 pl. de la Mairie","postCode":"31130"}
{"title":"Neige d'Été","address":"12 Rue de l'Amiral Roussin","postCode":"75015"}
{"title":"Umami","address":"8 r. des Dentelles","postCode":"67000"}
{"title":"Le Mas du Langoustier","address":"","postCode":"83400"}
{"title":"Auberge de la Diligence","address":"4 r. de la Libération","postCode":"49440"}
{"title":"Mariottat","address":"25 r. L.-Vivent","postCode":"47000"}
{"title":"Le Bois sans Feuilles","address":"728 Route de Villerest","postCode":"42155"}
{"title":"Initial","address":"24 Rue Saint-Manvieu","postCode":"14000"}
{"title":"Régis et Jacques Marcon","address":"Larsiallas","postCode":"43290"}
{"title":"Le Candille","address":"bd C. Rebuffel","postCode":"06250"}
{"title":"Domaine de Clairefontaine","address":"chemin des Fontanettes","postCode":"38121"}
{"title":"Ô Saveurs","address":"8 place Ormeaux au village","postCode":"31180"}
{"title":"Antoine","address":"10 av. de New-York","postCode":"75116"}
{"title":"Jérémy Galvan","address":"Rue du Boeuf","postCode":"69005"}
{"title":"Le Carrousel","address":"14 rue du Pont de Morge","postCode":"63350"}
{"title":"Pur' - Jean-François Rouquette","address":"5 r. de la Paix","postCode":"75002"}
{"title":"Alléno Paris au Pavillon Ledoyen","address":"8 avenue Dutuit","postCode":"75008"}
{"title":"64° Le Restaurant","address":"9-13 Rue du Général de Gaulle","postCode":"68240"}
{"title":"Le Gourmet de Sèze","address":"125 Rue de Sèze","postCode":"69006"}
{"title":"L'Abeille","address":"10 Avenue d'Iéna","postCode":"75016"}
{"title":"L'Escarbille","address":"8 Rue de Vélizy","postCode":"92190"}
{"title":"La Table de La Butte","address":"10 rue de la Mer","postCode":"29260"}
{"title":"L'Ekrin by Laurent Azoulay","address":"Route de la Montée","postCode":"73550"}
{"title":"Anne de Bretagne","address":"163, Boulevard de la Tara","postCode":"44770"}
{"title":"La Mare aux Oiseaux","address":"223 RUE DU CHEF DE L'ILE Fedrun","postCode":"44720"}
{"title":"Le Petit Nice","address":"Anse de Maldormé - Corniche J. F. Kennedy","postCode":"13007"}
{"title":"Julien Binz","address":"7 Rue des Cigognes","postCode":"68770"}
{"title":"La Scène Thélème","address":"18 Rue Troyon","postCode":"75017"}
{"title":"Château de Courban","address":"7 rue du Lavoir","postCode":"21520"}
{"title":"Le P'tit Polyte","address":"2 Rue de la Chapelle","postCode":"38860"}
{"title":"Le Sérac","address":"22 r. de la Comtesse","postCode":"74170"}
{"title":"À Contre Sens","address":"8-10 r. des Croisiers","postCode":"14000"}
{"title":"L'Éveil des Sens","address":"429 bd Paul-Lintier","postCode":"53100"}
{"title":"La Robe","address":"3 pl. Reveillère-Lepeaux","postCode":"85600"}
{"title":"Table - Bruno Verjus","address":"3 r. de Prague","postCode":"75012"}
{"title":"Val d'Auge","address":"805 av. du Gén.-de-Gaulle","postCode":"59910"}
{"title":"Le Pêché Gourmand","address":"2 rte de Gap","postCode":"05100"}
{"title":"La Ville Blanche","address":"La Ville Blanche","postCode":"22300"}
{"title":"L'Alchémille","address":"53 rte de Lapoutroie","postCode":"68240"}
{"title":"Le Moulin des Quatre Saisons","address":"r. Gallieni","postCode":"72200"}
{"title":"Haut Bonheur de la Table","address":"18 Grand-Place","postCode":"59670"}
{"title":"Auberge Le Prieuré","address":"4 Grand'Rue","postCode":"47310"}
{"title":"Château Blanchard","address":"36 rte de St-Galmier","postCode":"42140"}
{"title":"Le Prieuré","address":"7 pl. du Chapitre","postCode":"30400"}
{"title":"ES","address":"91 r. de Grenelle","postCode":"75007"}
